NORAD_CAT_ID,OBJECT_NAME,OBJECT_TYPE,EPOCH,MEAN_MOTION,ECCENTRICITY,INCLINATION,RA_OF_ASC_NODE,ARG_OF_PERICENTER,MEAN_ANOMALY,BSTAR,MEAN_MOTION_DOT,MEAN_MOTION_DDOT,TLE_LINE0,TLE_LINE1,TLE_LINE2,SEMIMAJOR_AXIS,PERIOD,APOGEE,PERIGEE,DECAYED
53702.0,STARLINK-4724,PAYLOAD,2022-12-01 06:00:00,15.73200265,0.000269,53.2146,201.7936,16.5535,14.7574,3.8474e-05,4.781e-05,0.0,0 STARLINK-4724,1 53702U 22107C   22335.25001157  .00004781  00000-0  38474-4 0  9995,2 53702  53.2146 201.7936 0002690  16.5535  14.7574 15.73200265 13845,6727.894,91.533,351.569,347.95,0.0
53702.0,STARLINK-4724,PAYLOAD,2022-12-01 14:00:01,15.73256983,0.0002551,53.2146,200.1424,21.2106,99.0649,-0.00010488,-0.00015353,0.0,0 STARLINK-4724,1 53702U 22107C   22335.58334491 -.00015353  00000-0 -10488-3 0  9994,2 53702  53.2146 200.1424 0002551  21.2106  99.0649 15.73256983  1308,6727.733,91.53,351.314,347.881,0.0
53702.0,STARLINK-4724,PAYLOAD,2022-12-01 22:00:00,15.73203969,0.0002846,53.2144,198.4947,22.4908,186.7699,0.00038733,0.00054106,0.0,0 STARLINK-4724,1 53702U 22107C   22335.91667824  .00054106  00000-0  38733-3 0  9990,2 53702  53.2144 198.4947 0002846  22.4908 186.7699 15.73203969 13943,6727.884,91.533,351.664,347.834,0.0
53702.0,STARLINK-4724,PAYLOAD,2022-12-02 14:00:01,15.73174921,0.0002386,53.2142,195.1937,13.9913,13.144,0.00041093,0.00057388,0.0,0 STARLINK-4724,1 53702U 22107C   22336.58334491  .00057388  00000-0  41093-3 0  9993,2 53702  53.2142 195.1937 0002386  13.9913  13.1440 15.73174921 14059,6727.967,91.535,351.43699999999984,348.226,0.0
53702.0,STARLINK-4724,PAYLOAD,2022-12-02 22:00:00,15.73213593,0.0002692,53.2142,193.5463,15.5189,100.5388,-0.00033311,-0.00047147,0.0,0 STARLINK-4724,1 53702U 22107C   22336.91667824 -.00047147  00000-0 -33311-3 0  9997,2 53702  53.2142 193.5463 0002692  15.5189 100.5388 15.73213593 14105,6727.856,91.532,351.533,347.91,0.0
53702.0,STARLINK-4724,PAYLOAD,2022-12-03 14:00:01,15.73155157,0.0002499,53.2146,190.2452,15.7453,278.1514,0.00054712,0.00076727,0.0,0 STARLINK-4724,1 53702U 22107C   22337.58334491  .00076727  00000-0  54712-3 0  9994,2 53702  53.2146 190.2452 0002499  15.7453 278.1514 15.73155157 14207,6728.023,91.536,351.569,348.207,0.0
53702.0,STARLINK-4724,PAYLOAD,2022-12-03 22:00:00,15.73201775,0.0002763,53.2143,188.5978,14.7356,8.0689,0.00027209,0.00037744,0.0,0 STARLINK-4724,1 53702U 22107C   22337.91667824  .00037744  00000-0  27209-3 0  9997,2 53702  53.2143 188.5978 0002763  14.7356   8.0689 15.73201775  1300,6727.89,91.533,351.61400000000015,347.896,0.0
53702.0,STARLINK-4724,PAYLOAD,2022-12-04 06:00:00,15.73250495,0.0002648999999999,53.2137,186.9473,11.7973,99.9543,-0.00049112,-0.00069146,0.0,0 STARLINK-4724,1 53702U 22107C   22338.25001157 -.00069146  00000-0 -49112-3 0  9996,2 53702  53.2137 186.9473 0002649  11.7973  99.9543 15.73250495 14316,6727.751,91.53,351.398,347.834,0.0
53702.0,STARLINK-4724,PAYLOAD,2022-12-04 14:00:01,15.73204836,0.0002468,53.2138,185.2968,15.2434,185.4582,-7.0579e-05,-0.00010518,0.0,0 STARLINK-4724,1 53702U 22107C   22338.58334491 -.00010518  00000-0 -70579-4 0  9993,2 53702  53.2138 185.2968 0002468  15.2434 185.4582 15.73204836  1305,6727.880999999999,91.533,351.407,348.086,0.0
53702.0,STARLINK-4724,PAYLOAD,2022-12-04 22:00:00,15.7318436,0.0002807,53.2138,183.6493,16.8553,272.7777,0.00049213,0.00068978,0.0,0 STARLINK-4724,1 53702U 22107C   22338.91667824  .00068978  00000-0  49213-3 0  9990,2 53702  53.2138 183.6493 0002807  16.8553 272.7777 15.73184360  1301,6727.94,91.534,351.6930000000001,347.916,0.0
53702.0,STARLINK-4724,PAYLOAD,2022-12-05 14:00:01,15.73243956,0.0002698,53.214,180.3479,22.7985,84.803,-5.9339e-05,-8.959e-05,0.0,0 STARLINK-4724,1 53702U 22107C   22339.58335648 -.00008959  00000-0 -59339-4 0  9996,2 53702  53.2140 180.3479 0002698  22.7985  84.8030 15.73243956 14524,6727.77,91.531,351.45,347.82,0.0
53702.0,STARLINK-4724,PAYLOAD,2022-12-05 19:38:37,15.73229724,0.0002874,53.2147,179.185,22.9933,337.1215,6.4381e-05,8.435e-05,0.0,0 STARLINK-4724,1 53702U 22107C   22339.81849359  .00008435  00000-0  64381-4 0  9991,2 53702  53.2147 179.1850 0002874  22.9933 337.1215 15.73229724 15348,6727.81,91.531,351.6090000000001,347.742,0.0
53702.0,STARLINK-4724,PAYLOAD,2022-12-06 00:13:05,15.73208874,0.0003761,53.2144,178.2412,27.3939,332.7278,2.5685e-05,2.984e-05,0.0,0 STARLINK-4724,1 53702U 22107C   22340.00908749  .00002984  00000-0  25685-4 0  9990,2 53702  53.2144 178.2412 0003761  27.3939 332.7278 15.73208874 14599,6727.87,91.533,352.265,347.205,0.0
53702.0,STARLINK-4724,PAYLOAD,2022-12-06 13:56:24,15.731942000000002,0.0002651,53.2146,175.4118,12.6386,347.47,-3.2925e-05,-5.24e-05,0.0,0 STARLINK-4724,1 53702U 22107C   22340.58083861 -.00005240  00000-0 -32925-4 0  9997,2 53702  53.2146 175.4118 0002651  12.6386 347.4700 15.73194200 14683,6727.9119999999975,91.534,351.56,347.99300000000005,0.0
53702.0,STARLINK-4724,PAYLOAD,2022-12-06 15:27:53,15.73192172,0.0002616,53.2146,175.09799999999996,14.79,345.3196,-3.5369e-05,-5.582e-05,0.0,0 STARLINK-4724,1 53702U 22107C   22340.64436769 -.00005582  00000-0 -35369-4 0  9997,2 53702  53.2146 175.0980 0002616  14.7900 345.3196 15.73192172 15472,6727.917,91.534,351.543,348.022,0.0
53702.0,STARLINK-4724,PAYLOAD,2022-12-06 21:33:48,15.73202905,0.0002417,53.2146,173.8398,10.0066,350.1002,-1.4771e-05,-2.695e-05,0.0,0 STARLINK-4724,1 53702U 22107C   22340.89847430 -.00002695  00000-0 -14771-4 0  9991,2 53702  53.2146 173.8398 0002417  10.0066 350.1002 15.73202905 14736,6727.887,91.533,351.37800000000016,348.126,0.0
53702.0,STARLINK-4724,PAYLOAD,2022-12-07 15:51:32,15.73233591,0.0002726,53.2147,170.0682,27.4463,332.6701,3.7236e-05,4.614e-05,0.0,0 STARLINK-4724,1 53702U 22107C   22341.66079675  .00004614  00000-0  37236-4 0  9997,2 53702  53.2147 170.0682 0002726  27.4463 332.6701 15.73233591 14857,6727.799,91.531,351.49800000000016,347.83,0.0
53702.0,STARLINK-4724,PAYLOAD,2022-12-08 13:12:14,15.73241415,0.0003005,53.2144,165.6661,16.9093,343.2026,8.753600000000001e-05,0.00011703,0.0,0 STARLINK-4724,1 53702U 22107C   22342.55017124  .00011703  00000-0  87536-4 0  9992,2 53702  53.2144 165.6661 0003005  16.9093 343.2026 15.73241415 15778,6727.776999999999,91.531,351.664,347.62,0.0
53702.0,STARLINK-4724,PAYLOAD,2022-12-08 19:18:12,15.73173454,0.0002472,53.2149,164.4093,69.6042,290.5243,-4.0243e-05,-6.26e-05,0.0,0 STARLINK-4724,1 53702U 22107C   22342.80431150 -.00006260  00000-0 -40243-4 0  9997,2 53702  53.2149 164.4093 0002472  69.6042 290.5243 15.73173454 15036,6727.971,91.535,351.499,348.173,0.0
53702.0,STARLINK-4724,PAYLOAD,2022-12-09 01:23:43,15.73701014,0.0005197,53.215,163.1508,298.0816,61.9678,0.00080038,0.00115806,0.0,0 STARLINK-4724,1 53702U 22107C   22343.05813908  .00115806  00000-0  80038-3 0  9990,2 53702  53.2150 163.1508 0005197 298.0816  61.9678 15.73701014 15074,6726.467,91.504,351.82800000000015,344.836,0.0
53702.0,STARLINK-4724,PAYLOAD,2022-12-10 17:07:43,15.69150333,0.0001798,53.2158,155.0082,213.3241,146.7664,-0.0048671,-0.00540728,0.0,0 STARLINK-4724,1 53702U 22107C   22344.71370014 -.00540728  00000-0 -48671-2 0  9993,2 53702  53.2158 155.0082 0001798 213.3241 146.7664 15.69150333 15337,6739.465999999999,91.769,362.543,360.119,0.0
53702.0,STARLINK-4724,PAYLOAD,2022-12-10 23:14:33,15.69138279,0.0003377,53.2142,153.7513,285.1225,74.9419,-0.0042031,-0.00470923,0.0,0 STARLINK-4724,1 53702U 22107C   22344.96844707 -.00470923  00000-0 -42031-2 0  9998,2 53702  53.2142 153.7513 0003377 285.1225  74.9419 15.69138279 15377,6739.5,91.77,363.641,359.089,0.0
53702.0,STARLINK-4724,PAYLOAD,2022-12-11 11:28:03,15.69312651,0.0007478,53.2145,151.2411,231.0095,129.0258,-0.0019594,-0.00228251,0.0,0 STARLINK-4724,1 53702U 22107C   22345.47781853 -.00228251  00000-0 -19594-2 0  9990,2 53702  53.2145 151.2411 0007478 231.0095 129.0258 15.69312651 15451,6739.001,91.76,365.905,355.827,0.0
53702.0,STARLINK-4724,PAYLOAD,2022-12-11 19:08:44,15.67094544,0.0002686,53.2159,149.68200000000004,295.5917,64.4822,-0.0049052,-0.00503184,0.0,0 STARLINK-4724,1 53702U 22107C   22345.79774196 -.00503184  00000-0 -49052-2 0  9990,2 53702  53.2159 149.6820 0002686 295.5917  64.4822 15.67094544 15506,6745.359,91.89,369.035,365.412,0.0
53702.0,STARLINK-4724,PAYLOAD,2022-12-12 22:00:00,15.62924141,0.0001474,53.2172,144.2177,48.9057,136.9327,-0.013507,-0.01127588,0.0,0 STARLINK-4724,1 53702U 22107C   22346.91667824 -.01127588  00000-0 -13507-1 0  9990,2 53702  53.2172 144.2177 0001474  48.9057 136.9327 15.62924141 15679,6757.353,92.135,380.214,378.221,0.0
53702.0,STARLINK-4724,PAYLOAD,2022-12-13 14:00:01,15.61302053,0.0001125,53.2174,140.9713,61.8004,275.2345,-0.014516,-0.01136134,0.0,0 STARLINK-4724,1 53702U 22107C   22347.58334491 -.01136134  00000-0 -14516-1 0  9993,2 53702  53.2174 140.9713 0001125  61.8004 275.2345 15.61302053 15789,6762.031999999997,92.231,384.658,383.136,0.0
53702.0,STARLINK-4724,PAYLOAD,2022-12-13 22:00:00,15.6048616,0.0001215,53.2171,139.3529,51.1352,0.0315,-0.01492,-0.01131831,0.0,0 STARLINK-4724,1 53702U 22107C   22347.91667824 -.01131831  00000-0 -14920-1 0  9997,2 53702  53.2171 139.3529 0001215  51.1352   0.0315 15.60486160  1306,6764.389,92.279,387.076,385.432,0.0
53702.0,STARLINK-4724,PAYLOAD,2022-12-14 14:00:01,15.58869205,0.0001472,53.2174,136.1184,53.4546,143.0384,-0.016094,-0.01145923,0.0,0 STARLINK-4724,1 53702U 22107C   22348.58334491 -.01145923  00000-0 -16094-1 0  9993,2 53702  53.2174 136.1184 0001472  53.4546 143.0384 15.58869205 15936,6769.066,92.375,391.927,389.934,0.0
53702.0,STARLINK-4724,PAYLOAD,2022-12-14 22:00:00,15.57989188,0.0001336,53.2171,134.506,46.7161,221.0057,-0.015183,-0.01054286,0.0,0 STARLINK-4724,1 53702U 22107C   22348.91667824 -.01054286  00000-0 -15183-1 0  9998,2 53702  53.2171 134.5060 0001336  46.7161 221.0057 15.57989188  1307,6771.614000000001,92.427,394.384,392.575,0.0
